ALOS-2                  
1 39766U 14029A   26077.30789435  .00001506  00000+0  20824-3 0  9998
2 39766  97.9196 175.7801 0001471  94.1747 265.9633 14.79538206638149
YAOGAN-29               
1 41038U 15069A   26077.29593903  .00000541  00000+0  73198-4 0  9990
2 41038  98.0133 105.7482 0001324  22.8227 337.3045 14.83005082557151
ASTRO-H (HITOMI)        
1 41337U 16012A   26076.83068632  .00002469  00000+0  14225-3 0  9992
2 41337  30.9997 304.0110 0009639  52.6877 307.4639 15.10059012553467
HXMT (HUIYAN)           
1 42758U 17034A   26077.13676729  .00004246  00000+0  21636-3 0  9990
2 42758  43.0155 329.7085 0033126 287.3391  72.3835 15.17580990483826
SAOCOM 1A               
1 43641U 18076A   26077.26684361  .00000168  00000+0  27683-4 0  9992
2 43641  97.8893 265.3181 0001440  88.3154 271.8224 14.82148516402639
H-2A R/B                
1 43682U 18084L   26077.10631312  .00014743  00000+0  34795-3 0  9992
2 43682  98.8721 296.2957 0024742 356.4623   3.6440 15.41704637407071
SAOCOM 1B               
1 46265U 20059A   26073.04490030  .00000161  00000+0  26755-4 0  9993
2 46265  97.8899 260.2532 0001383  84.3427 275.7944 14.82151938299390
CSS (TIANHE)            
1 48274U 21035A   26077.16120950  .00021858  00000+0  25476-3 0  9992
2 48274  41.4669 156.5982 0005998 324.6627  35.3814 15.61122200278937
COSMOS 2550             
1 48865U 21056A   26076.14655870 -.00000204  00000+0 -37996-6 0  9999
2 48865  67.1448  18.3252 0008297 268.8880  91.1323 15.33878800264600
CZ-2C R/B               
1 52794U 22058K   26077.25424037  .00026527  00000+0  38095-3 0  9992
2 52794  50.1878 274.2128 0041906 237.3535 122.3390 15.54843940211469
CZ-2C R/B               
1 54039U 22132E   26077.27499837  .00034194  00000+0  37926-3 0  9992
2 54039  97.2952  80.8573 0019742  64.2408 296.0885 15.62634555191714
GSLV R/B                
1 54149U 22138AN  26077.27815118  .00002173  00000+0  18616-3 0  9991
2 54149  87.3876 163.4879 0023852 118.0656 242.2992 14.96833849185211
